1 32789U 08021G   21272.37533341  .00004544  00000-0  28705-3 0  9995
2 32789  97.3695 303.7270 0012728 139.6179 220.5997 15.09471725732500